[{"OBJECT_NAME":"SJ-11-08","OBJECT_ID":"2014-066A","EPOCH":"2026-03-09T22:53:00.595104","MEAN_MOTION":14.66034371,"ECCENTRICITY":0.0012045,"INCLINATION":98.3343,"RA_OF_ASC_NODE":212.2023,"ARG_OF_PERICENTER":177.4868,"MEAN_ANOMALY":182.6397,"EPHEMERIS_TYPE":0,"CLASSIFICATION_TYPE":"U","NORAD_CAT_ID":40286,"ELEMENT_SET_NO":999,"REV_AT_EPOCH":60667,"BSTAR":0.00021581711,"MEAN_MOTION_DOT":1.134e-5,"MEAN_MOTION_DDOT":0},{"OBJECT_NAME":"SPARK 1","OBJECT_ID":"2016-081C","EPOCH":"2026-03-09T21:21:27.733248","MEAN_MOTION":14.59658645,"ECCENTRICITY":0.00224597,"INCLINATION":98.5453,"RA_OF_ASC_NODE":60.355,"ARG_OF_PERICENTER":266.7681,"MEAN_ANOMALY":93.0948,"EPHEMERIS_TYPE":0,"CLASSIFICATION_TYPE":"U","NORAD_CAT_ID":41900,"ELEMENT_SET_NO":999,"REV_AT_EPOCH":48978,"BSTAR":0.00021503269,"MEAN_MOTION_DOT":9.77e-6,"MEAN_MOTION_DDOT":0}]
